NORAD_CAT_ID,OBJECT_NAME,OBJECT_TYPE,EPOCH,MEAN_MOTION,ECCENTRICITY,INCLINATION,RA_OF_ASC_NODE,ARG_OF_PERICENTER,MEAN_ANOMALY,BSTAR,MEAN_MOTION_DOT,MEAN_MOTION_DDOT,TLE_LINE0,TLE_LINE1,TLE_LINE2,SEMIMAJOR_AXIS,PERIOD,APOGEE,PERIGEE,DECAYED
55435.0,STARLINK-5626,PAYLOAD,2023-09-12 15:32:23,14.98346537,0.0003632,69.9995,236.4458,271.2922,88.7821,-0.00024753,-3.047e-05,0.0,0 STARLINK-5626,1 55435U 23014AW  23255.64749276 -.00003047  00000-0 -24753-3 0  9994,2 55435  69.9995 236.4458 0003632 271.2922  88.7821 14.98346537 34902,6950.142,96.106,574.531,569.482,0.0
55435.0,STARLINK-5626,PAYLOAD,2023-09-13 09:09:51,14.98333624,0.0003572,69.9995,234.5946,269.1582,90.9167,0.00010606,1.173e-05,0.0,0 STARLINK-5626,1 55435U 23014AW  23256.38185166  .00001173  00000-0  10606-3 0  9996,2 55435  69.9995 234.5946 0003572 269.1582  90.9167 14.98333624 34073,6950.182,96.107,574.529,569.564,0.0
55435.0,STARLINK-5626,PAYLOAD,2023-09-13 21:58:57,14.98333654,0.0002598,70.0011,233.247,262.4643,97.6221,-8.2546e-05,-1.078e-05,0.0,0 STARLINK-5626,1 55435U 23014AW  23256.91593829 -.00001078  00000-0 -82546-4 0  9993,2 55435  70.0011 233.2470 0002598 262.4643  97.6221 14.98333654 35095,6950.182,96.107,573.852,570.241,0.0
55435.0,STARLINK-5626,PAYLOAD,2023-09-14 02:47:21,14.98328051,0.0003398,69.9997,232.744,269.0361,91.0409,-0.00013294,-1.679e-05,0.0,0 STARLINK-5626,1 55435U 23014AW  23257.11622234 -.00001679  00000-0 -13294-3 0  9999,2 55435  69.9997 232.7440 0003398 269.0361  91.0409 14.98328051 34185,6950.199,96.107,574.426,569.702,0.0
55435.0,STARLINK-5626,PAYLOAD,2023-09-14 07:35:45,14.98327097,0.0003201,69.9999,232.2392,260.6127,99.467,-0.00014451,-1.817e-05,0.0,0 STARLINK-5626,1 55435U 23014AW  23257.31650320 -.00001817  00000-0 -14451-3 0  9998,2 55435  69.9999 232.2392 0003201 260.6127  99.4670 14.98327097 35157,6950.202,96.107,574.292,569.842,0.0
55435.0,STARLINK-5626,PAYLOAD,2023-09-14 15:36:26,14.98322794,0.00035,69.9995,231.3967,262.9782,97.0979,4.5761e-05,4.53e-06,0.0,0 STARLINK-5626,1 55435U 23014AW  23257.65030160  .00000453  00000-0  45761-4 0  9991,2 55435  69.9995 231.3967 0003500 262.9782  97.0979 14.98322794 35206,6950.215,96.107,574.513,569.648,0.0
55435.0,STARLINK-5626,PAYLOAD,2023-09-15 02:49:22,14.98328988,0.0003584,69.9994,230.2176,268.8959,91.179,3.1716e-06,-5.5e-07,0.0,0 STARLINK-5626,1 55435U 23014AW  23258.11761884 -.00000055  00000-0  31716-5 0  9992,2 55435  69.9994 230.2176 0003584 268.8959  91.1790 14.98328988 34338,6950.196,96.107,574.552,569.57,0.0
55435.0,STARLINK-5626,PAYLOAD,2023-09-15 07:37:46,14.98331562,0.0003355,69.9999,229.7137,260.2713,99.8067,1.0033e-06,-8.1e-07,0.0,0 STARLINK-5626,1 55435U 23014AW  23258.31789698 -.00000081  00000-0  10033-5 0  9995,2 55435  69.9999 229.7137 0003355 260.2713  99.8067 14.98331562 35305,6950.188,96.107,574.385,569.721,0.0
55435.0,STARLINK-5626,PAYLOAD,2023-09-16 02:51:23,14.98323256,0.0003563,69.9997,227.6922,267.1319,92.9432,0.00012526,1.402e-05,0.0,0 STARLINK-5626,1 55435U 23014AW  23259.11901945  .00001402  00000-0  12526-3 0  9999,2 55435  69.9997 227.6922 0003563 267.1319  92.9432 14.98323256 34480,6950.214,96.107,574.555,569.602,0.0
55435.0,STARLINK-5626,PAYLOAD,2023-09-16 07:39:47,14.98329213,0.0003516,69.9997,227.1875,266.3515,93.7242,8.8276e-05,9.6e-06,0.0,0 STARLINK-5626,1 55435U 23014AW  23259.31929703  .00000960  00000-0  88276-4 0  9997,2 55435  69.9997 227.1875 0003516 266.3515  93.7242 14.98329213 35454,6950.195,96.107,574.504,569.617,0.0
55435.0,STARLINK-5626,PAYLOAD,2023-09-17 02:53:24,14.98330113,0.0003455,69.9997,225.1681,267.7795,92.2968,1.7225e-05,1.12e-06,0.0,0 STARLINK-5626,1 55435U 23014AW  23260.12041877  .00000112  00000-0  17225-4 0  9990,2 55435  69.9997 225.1681 0003455 267.7795  92.2968 14.98330113 34633,6950.193,96.107,574.459,569.656,0.0
55435.0,STARLINK-5626,PAYLOAD,2023-09-17 07:41:48,14.98332773,0.0003397,69.9997,224.6628,264.7963,95.2808,4.1739e-05,4.05e-06,0.0,0 STARLINK-5626,1 55435U 23014AW  23260.32069627  .00000405  00000-0  41739-4 0  9997,2 55435  69.9997 224.6628 0003397 264.7963  95.2808 14.98332773 35605,6950.184,96.107,574.41,569.688,0.0
55435.0,STARLINK-5626,PAYLOAD,2023-09-18 02:55:24,14.98331963,0.000344,70.0,222.6435,268.775,91.3015,5.4378e-05,5.56e-06,0.0,0 STARLINK-5626,1 55435U 23014AW  23261.12181540  .00000556  00000-0  54378-4 0  9995,2 55435  70.0000 222.6435 0003440 268.7750  91.3015 14.98331963 34789,6950.187,96.107,574.443,569.661,0.0
55435.0,STARLINK-5626,PAYLOAD,2023-09-18 07:43:48,14.98327758,0.0003348,69.9997,222.1384,267.2024,92.8751,0.00028202,3.273e-05,0.0,0 STARLINK-5626,1 55435U 23014AW  23261.32209203  .00003273  00000-0  28202-3 0  9999,2 55435  69.9997 222.1384 0003348 267.2024  92.8751 14.98327758 35752,6950.2,96.107,574.392,569.738,0.0
55435.0,STARLINK-5626,PAYLOAD,2023-09-19 02:57:26,14.98323113,0.0003351,70.0,220.1202,265.7261,94.3515,-6.4806e-06,-1.7e-06,0.0,0 STARLINK-5626,1 55435U 23014AW  23262.12322055 -.00000170  00000-0 -64806-5 0  9996,2 55435  70.0000 220.1202 0003351 265.7261  94.3515 14.98323113 34932,6950.214,96.107,574.408,569.75,0.0
55435.0,STARLINK-5626,PAYLOAD,2023-09-20 02:59:26,14.98333657,0.0003434,69.9996,217.5938,270.7877,89.2889,-5.1025e-06,-1.54e-06,0.0,0 STARLINK-5626,1 55435U 23014AW  23263.12461480 -.00000154  00000-0 -51025-5 0  9994,2 55435  69.9996 217.5938 0003434 270.7877  89.2889 14.98333657 35088,6950.182,96.107,574.433,569.66,0.0
55435.0,STARLINK-5626,PAYLOAD,2023-09-20 14:12:23,14.98333933,0.0003229,70.0003,216.416,268.4595,91.6194,-4.6065e-05,-6.43e-06,0.0,0 STARLINK-5626,1 55435U 23014AW  23263.59193411 -.00000643  00000-0 -46065-4 0  9991,2 55435  70.0003 216.4160 0003229 268.4595  91.6194 14.98333933 36093,6950.181,96.107,574.29,569.802,0.0
55435.0,STARLINK-5626,PAYLOAD,2023-09-20 22:13:04,14.98314387,0.000286,70.0016,215.5761,261.6823,98.4012,2.6472e-05,2.23e-06,0.0,0 STARLINK-5626,1 55435U 23014AW  23263.92574572  .00000223  00000-0  26472-4 0  9991,2 55435  70.0016 215.5761 0002860 261.6823  98.4012 14.98314387 36145,6950.241,96.108,574.094,570.118,0.0
55435.0,STARLINK-5626,PAYLOAD,2023-09-21 01:25:20,14.98315405,0.0002692,70.0018,215.2403,261.5597,98.5257,4.2751e-05,4.17e-06,0.0,0 STARLINK-5626,1 55435U 23014AW  23264.05926568  .00000417  00000-0  42751-4 0  9995,2 55435  70.0018 215.2403 0002692 261.5597  98.5257 14.98315405 35229,6950.238,96.108,573.974,570.232,0.0
55435.0,STARLINK-5626,PAYLOAD,2023-09-21 06:13:44,14.98315519,0.0002728,70.0015,214.7349,262.6326,97.4523,1.9696e-05,1.42e-06,0.0,0 STARLINK-5626,1 55435U 23014AW  23264.25954814  .00000142  00000-0  19696-4 0  9999,2 55435  70.0015 214.7349 0002728 262.6326  97.4523 14.98315519 36198,6950.238,96.108,573.999,570.207,0.0
55435.0,STARLINK-5626,PAYLOAD,2023-09-21 20:38:56,14.98333442,0.000306,70.0006,213.2188,265.6389,94.4421,-5.8801e-06,-1.63e-06,0.0,0 STARLINK-5626,1 55435U 23014AW  23264.86037868 -.00000163  00000-0 -58801-5 0  9994,2 55435  70.0006 213.2188 0003060 265.6389  94.4421 14.98333442 36284,6950.182,96.107,574.174,569.92,0.0
55435.0,STARLINK-5626,PAYLOAD,2023-09-22 03:03:28,14.98338738,0.0002687,70.0013,212.5445,261.2305,98.855,0.0001214,1.356e-05,0.0,0 STARLINK-5626,1 55435U 23014AW  23265.12741160  .00001356  00000-0  12140-3 0  9998,2 55435  70.0013 212.5445 0002687 261.2305  98.8550 14.98338738 35388,6950.166,96.106,573.898,570.163,0.0
55435.0,STARLINK-5626,PAYLOAD,2023-09-22 06:15:44,14.98339823,0.0002939,70.0008,212.2084,265.9301,94.1522,8.4602e-05,9.17e-06,0.0,0 STARLINK-5626,1 55435U 23014AW  23265.26093124  .00000917  00000-0  84602-4 0  9998,2 55435  70.0008 212.2084 0002939 265.9301  94.1522 14.98339823 36346,6950.163,96.106,574.07,569.985,0.0
55435.0,STARLINK-5626,PAYLOAD,2023-09-22 22:17:05,14.98328002,0.0002834,70.0013,210.527,266.3318,93.7517,0.00012278,1.372e-05,0.0,0 STARLINK-5626,1 55435U 23014AW  23265.92853653  .00001372  00000-0  12278-3 0  9997,2 55435  70.0013 210.5270 0002834 266.3318  93.7517 14.98328002 36444,6950.199,96.107,574.034,570.094,0.0
55435.0,STARLINK-5626,PAYLOAD,2023-09-23 03:05:29,14.98329585,0.0002783,70.0013,210.0215,263.1725,96.9118,0.00012401,1.387e-05,0.0,0 STARLINK-5626,1 55435U 23014AW  23266.12881539  .00001387  00000-0  12401-3 0  9998,2 55435  70.0013 210.0215 0002783 263.1725  96.9118 14.98329585 35536,6950.194,96.107,573.993,570.125,0.0
55435.0,STARLINK-5626,PAYLOAD,2023-09-23 06:17:45,14.98332358,0.0002963,70.0009,209.684,266.5035,93.5786,0.00012918,1.449e-05,0.0,0 STARLINK-5626,1 55435U 23014AW  23266.26233318  .00001449  00000-0  12918-3 0  9991,2 55435  70.0009 209.6840 0002963 266.5035  93.5786 14.98332358 36492,6950.186,96.107,574.11,569.991,0.0
55435.0,STARLINK-5626,PAYLOAD,2023-09-24 03:07:30,14.98332244,0.000287,70.001,207.4959,266.768,93.3151,-4.8347e-05,-6.7e-06,0.0,0 STARLINK-5626,1 55435U 23014AW  23267.13021652 -.00000670  00000-0 -48347-4 0  9997,2 55435  70.0010 207.4959 0002870 266.7680  93.3151 14.98332244 35684,6950.186,96.107,574.046,570.056,0.0
55435.0,STARLINK-5626,PAYLOAD,2023-09-24 06:19:46,14.98333785,0.0003012,70.0011,207.1596,270.222,89.8593,-1.5902e-05,-2.83e-06,0.0,0 STARLINK-5626,1 55435U 23014AW  23267.26373459 -.00000283  00000-0 -15902-4 0  9997,2 55435  70.0011 207.1596 0003012 270.2220  89.8593 14.98333785 36646,6950.181,96.107,574.14,569.953,0.0
55435.0,STARLINK-5626,PAYLOAD,2023-09-24 22:21:07,14.98301064,0.0002661,70.0013,205.4766,273.8709,86.2146,0.00042426,4.969e-05,0.0,0 STARLINK-5626,1 55435U 23014AW  23267.93134083  .00004969  00000-0  42426-3 0  9992,2 55435  70.0013 205.4766 0002661 273.8709  86.2146 14.98301064 36749,6950.282,96.109,573.997,570.298,0.0
55435.0,STARLINK-5626,PAYLOAD,2023-09-25 03:09:31,14.98332389,0.0002827,70.0011,204.9719,267.7198,92.3638,1.8083e-05,1.23e-06,0.0,0 STARLINK-5626,1 55435U 23014AW  23268.13161369  .00000123  00000-0  18083-4 0  9993,2 55435  70.0011 204.9719 0002827 267.7198  92.3638 14.98332389 35834,6950.186,96.107,574.015,570.086,0.0
